              M50 Cartesian                         J2K Cartesian  
    -----------------------------------       --------------------------------
     X    =      -16536644.44                 X    =        -5019925.90
     Y    =         585042.35  feet           Y    =          122070.09  meter
     Z    =      -14901521.22                 Z    =        -4566418.60
     XDOT =      -9863.519139                 XDOT =       -2950.354696
     YDOT =     -20776.212826  feet/sec       YDOT =       -6365.895613  meter/sec
     ZDOT =      10124.537903                 ZDOT =        3071.491625
 
              TDR Cartesian                         TDR Cartesian  
    -----------------------------------       --------------------------------
     X    =      -15721934.38                 X    =        -4792045.60
     Y    =       -4842886.66  feet           Y    =        -1476111.85  meter
     Z    =      -15007513.02                 Z    =        -4574289.97
     XDOT =      -2915.363818                 XDOT =        -888.602892
     YDOT =     -21736.300124  feet/sec       YDOT =       -6625.224278  meter/sec
     ZDOT =      10062.831077                 ZDOT =        3067.150912
  
  
    The mean element set is posted at the UTC for which position is
    just north of the next ascending node relative to the above
    vector time
 
 
    TWO LINE MEAN ELEMENT SET
  
    ISS
    1 25544U 98067A   16063.51060478  .00016717  00000-0  10270-3 0  9015
    2 25544  51.6379 225.0298 0003523 191.3421 168.7653 15.54363426 28549
  
  
    Satellite: ISS
    Catalog Number: 25544
    Epoch time:      16063.51060478   =   yrday.fracday
    Element set:     901
    Inclination:       51.6379  deg
    RA of node:       225.0298  deg
    Eccentricity:     .0003523     
    Arg of perigee:   191.3421  deg
    Mean anomaly:     168.7653  deg
    Mean motion:   15.54363426  rev/day
    Decay rate:    1.67170E-04  rev/day^2
    Epoch rev:            2854
    Checksum:              308
 
 
    Coasting Arc #3 (Orbit 2869)
    ---------------------------------------
 
    Vector Time (GMT): 2016/064/12:00:00.000
    Vector Time (MET): N/A
    Weight (LBS)     : 890369.9
 
              M50 Cartesian                         M50 Keplerian  
    -----------------------------------       --------------------------------
     X    =        5758527.98                 A    =         6783752.75  meter
     Y    =        1209982.79  meter          E    =           .0011976
     Z    =        3361976.40                 I    =           51.40451
     XDOT =       1461.838015                 Wp   =          106.91214
     YDOT =       5940.296609  meter/sec      RA   =          218.99750  deg
     ZDOT =      -4631.556327                 TA   =           33.68777
                                              MA   =           33.61171
                                              Ha   =            220.595  n.mi
                                              Hp   =            214.549
 
              M50 Cartesian                         J2K Cartesian  
    -----------------------------------       --------------------------------
     X    =       18892808.33                 X    =         5728238.86
     Y    =        3969759.81  feet           Y    =         1274209.40  meter
     Z    =       11030106.31                 Z    =         3389875.82
     XDOT =       4796.056481                 XDOT =        1417.801287
     YDOT =      19489.162102  feet/sec       YDOT =        5956.397237  meter/sec
     ZDOT =     -15195.394772                 ZDOT =       -4624.562645
 
              TDR Cartesian                         TDR Cartesian  
    -----------------------------------       --------------------------------
     X    =       16645072.11                 X    =         5073417.98
     Y    =        9641534.99  feet           Y    =         2938739.87  meter
     Z    =       11150911.26                 Z    =         3398797.75
     XDOT =       -723.784276                 XDOT =        -220.609447
     YDOT =      18828.314794  feet/sec       YDOT =        5738.870349  meter/sec
     ZDOT =     -15166.022043                 ZDOT =       -4622.603519
  
  
    The mean element set is posted at the UTC for which position is
    just north of the next ascending node relative to the above
    vector time
 
 
    TWO LINE MEAN ELEMENT SET
  
    ISS
    1 25544U 98067A   16064.53927548  .00016717  00000-0  10270-3 0  9029
    2 25544  51.6371 219.8989 0003507 196.0252 164.0790 15.54359870 28702
  
  
    Satellite: ISS
    Catalog Number: 25544
    Epoch time:      16064.53927548   =   yrday.fracday
    Element set:     902
    Inclination:       51.6371  deg
    RA of node:       219.8989  deg
    Eccentricity:     .0003507     
    Arg of perigee:   196.0252  deg
    Mean anomaly:     164.0790  deg
    Mean motion:   15.54359870  rev/day
    Decay rate:    1.67170E-04  rev/day^2
    Epoch rev:            2870
    Checksum:              335
 
 
    Coasting Arc #4 (Orbit 2880)
    ---------------------------------------
 
    Vector Time (GMT): 2016/065/04:23:20.227
    Vector Time (MET): N/A
    Weight (LBS)     : 890089.8
 
              M50 Cartesian                         M50 Keplerian  
    -----------------------------------       --------------------------------
     X    =       -5319227.09                 A    =         6789925.01  meter
     Y    =       -4193018.22  meter          E    =           .0011097
     Z    =         390415.48                 I    =           51.44171
     XDOT =       3239.049889                 Wp   =           47.03670
     YDOT =      -3542.905957  meter/sec      RA   =          215.61442  deg
     ZDOT =       5979.699803                 TA   =          317.18356
                                              MA   =          317.26993
                                              Ha   =            220.802  n.mi
                                              Hp   =            215.590
 
              M50 Cartesian                         J2K Cartesian  
    -----------------------------------       --------------------------------
     X    =      -17451532.44                 X    =        -5273840.83
     Y    =      -13756621.45  feet           Y    =        -4252247.54  meter
     Z    =        1280890.68                 Z    =          364687.04
     XDOT =      10626.804098                 XDOT =        3249.380466
     YDOT =     -11623.707209  feet/sec       YDOT =       -3506.626446  meter/sec
     ZDOT =      19618.437675                 ZDOT =        5995.459457
 
              TDR Cartesian                         TDR Cartesian  
    -----------------------------------       --------------------------------
     X    =       21883013.74                 X    =         6669942.59
     Y    =       -3899510.29  feet           Y    =        -1188570.74  meter
     Z    =        1169969.45                 Z    =          356606.69
     XDOT =       1418.358957                 XDOT =         432.315810
     YDOT =      13974.468079  feet/sec       YDOT =        4259.417871  meter/sec
     ZDOT =      19687.360929                 ZDOT =        6000.707611
  
  
    The mean element set is posted at the UTC for which position is
    just north of the next ascending node relative to the above
    vector time
 
 
    TWO LINE MEAN ELEMENT SET
  
    ISS
    1 25544U 98067A   16065.24650045  .00016717  00000-0  10270-3 0  9034
    2 25544  51.6410 216.3765 0001706 244.2160 115.8816 15.53905553 28812
  
  
    Satellite: ISS
    Catalog Number: 25544
    Epoch time:      16065.24650045   =   yrday.fracday
    Element set:     903
    Inclination:       51.6410  deg
    RA of node:       216.3765  deg
    Eccentricity:     .0001706     
    Arg of perigee:   244.2160  deg
    Mean anomaly:     115.8816  deg
    Mean motion:   15.53905553  rev/day
    Decay rate:    1.67170E-04  rev/day^2
    Epoch rev:            2881
    Checksum:              290
 
 
    Coasting Arc #5 (Orbit 2895)
    ---------------------------------------
 
    Vector Time (GMT): 2016/066/04:23:20.227
    Vector Time (MET): N/A
    Weight (LBS)     : 890089.8
 
              M50 Cartesian                         M50 Keplerian  
    -----------------------------------       --------------------------------
     X    =        4589591.22                 A    =         6788309.06  meter
     Y    =        4576304.04  meter          E    =           .0006533
     Z    =       -2008094.08                 I    =           51.46354
     XDOT =      -4745.963705                 Wp   =          156.17408
     YDOT =       2328.878279  meter/sec      RA   =          210.63036  deg
     ZDOT =      -5551.948980                 TA   =           46.05751
                                              MA   =           46.00362
                                              Ha   =            220.781  n.mi
                                              Hp   =            215.648
 
              M50 Cartesian                         J2K Cartesian  
    -----------------------------------       --------------------------------
     X    =       15057713.98                 X    =         4547831.03
     Y    =       15014120.85  feet           Y    =         4627394.18  meter
     Z    =       -6588235.17                 Z    =        -1985901.31
     XDOT =     -15570.747063                 XDOT =       -4744.684572
     YDOT =       7640.676767  feet/sec       YDOT =        2275.812322  meter/sec
     ZDOT =     -18215.055710                 ZDOT =       -5575.000412
 
